COSMOS 2547             
1 46805U 20075A   26116.32568127 -.00000012  00000+0  00000+0 0  9999
2 46805  64.5968 194.2055 0008364 236.7383 123.2291  2.13100274 42806
GPS BIII-4              
1 46826U 20078A   26112.92753654 -.00000017  00000+0  00000+0 0  9993
2 46826  53.9891 213.0193 0070939 205.6597 155.6852  2.00564823 40404
GSAT0223 (GALILEO 27)   
1 49809U 21116A   26116.95302962 -.00000091  00000+0  00000+0 0  9992
2 49809  57.1768 343.0587 0000603 260.8560  95.4130  1.70475733 27303
GSAT0224 (GALILEO 28)   
1 49810U 21116B   26114.72218082 -.00000089  00000+0  00000+0 0  9993
2 49810  57.1774 343.1180 0000625  14.3979 165.3634  1.70475626 27297
GOES 18                 
1 51850U 22021A   26116.96599441  .00000000  00000+0  00000+0 0  9997
2 51850   0.0104  83.6605 0000668   3.3583 338.7000  1.00271663  6076
COSMOS 2557 (706K)      
1 52984U 22075A   26116.95964515 -.00000033  00000+0  00000+0 0  9999
2 52984  64.3278 316.2899 0010196 281.3644  78.5490  2.13101838 29622
METEOSAT-12 (MTG-I1)    
1 54743U 22170C   26117.22267126 -.00000018  00000+0  00000+0 0  9998
2 54743   0.7245  22.4777 0001107 335.3296 297.2322  1.00269708 12465
METEOR-M2 3             
1 57166U 23091A   26117.29876321  .00000012  00000+0  24229-4 0  9990
2 57166  98.6122 173.3078 0003220 334.1849  25.9169 14.24042335147274
COSMOS 2569 (703K)      
1 57517U 23114A   26116.63503521  .00000002  00000+0  00000+0 0  9997
2 57517  65.2747  74.3578 0012405 295.3839  64.4650  2.13103767 21168
METEOR-M2 4             
1 59051U 24039A   26117.32606396  .00000039  00000+0  37116-4 0  9993
2 59051  98.6976  77.2745 0006400 325.4394  34.6367 14.22424135112033
GSAT0225 (GALILEO 29)   
1 59598U 24079A   26116.51256791  .00000043  00000+0  00000+0 0  9995
2 59598  55.0873 102.5222 0002644 283.7060 268.0228  1.70474393 12438
GSAT0227 (GALILEO 30)   
1 59600U 24079C   26116.97013875  .00000041  00000+0  00000+0 0  9991
2 59600  55.0827 102.5083 0001264  14.0321 345.9647  1.70474385 12495
GSAT0232 (GALILEO 32)   
1 61182U 24167A   26115.45016990 -.00000037  00000+0  00000+0 0  9996
2 61182  55.2008 222.7596 0004844 214.4336 148.2272  1.70474394  9987
GSAT0226 (GALILEO 31)   
1 61183U 24167B   26117.06262813 -.00000038  00000+0  00000+0 0  9994
2 61183  55.1989 222.7226 0001799 195.0012 168.6094  1.70474449  9985
GSAT0233 (GALILEO 33)   
1 67160U 25302A   26116.60777961  .00000042  00000+0  00000+0 0  9995
2 67160  54.3025 103.5985 0002100 244.3299 296.6080  1.70474442  2240
GSAT0234 (GALILEO 34)   
1 67162U 25302C   26114.56077547  .00000043  00000+0  00000+0 0  9994
2 67162  54.3036 103.6556 0003906 293.1512 251.5938  1.70474332  2266
